OSCAR 7 (AO-7)          
1 07530U 74089B   26185.28851557 -.00000043  00000+0  19074-4 0  9998
2 07530 101.9900 198.7133 0012660  98.4849 273.4162 12.53698407362669
PHASE 3B (AO-10)        
1 14129U 83058B   26182.45083748 -.00000048  00000+0  00000+0 0  9990
2 14129  25.9245 217.2087 6005973 119.5898 312.7847  2.05870235295789
UOSAT 2 (UO-11)         
1 14781U 84021B   26185.13545166  .00001651  00000+0  17328-3 0  9995
2 14781  97.8067 150.5219 0008877 121.8860 238.3223 14.90828443259652
LUSAT (LO-19)           
1 20442U 90005G   26184.57758943  .00000134  00000+0  64483-4 0  9991
2 20442  98.8845 206.8345 0012038 153.2825 206.8982 14.34128153904745
EYESAT A (AO-27)        
1 22825U 93061C   26184.64172526  .00000129  00000+0  66110-4 0  9991
2 22825  98.6874 252.0488 0009299  57.1001 303.1075 14.30946735709350
ITAMSAT (IO-26)         
1 22826U 93061D   26185.10554604  .00000131  00000+0  66196-4 0  9992
2 22826  98.6821 252.4316 0009569  40.3301 319.8590 14.31374233709731
RADIO ROSTO (RS15)      
1 23439U 94085A   26185.23297576 -.00000023  00000+0  54454-3 0  9990
2 23439  64.8176 275.6492 0156518   0.7279 359.3846 11.27583518297828
JAS-2 (FO-29)           
1 24278U 96046B   26185.02007221 -.00000030  00000+0  34763-5 0  9995
2 24278  98.5226  31.5851 0350749  52.8786 310.3863 13.53274954475445
TECHSAT 1B (GO-32)      
1 25397U 98043D   26185.27390598  .00000070  00000+0  50222-4 0  9996
2 25397  99.0075 178.4639 0001833 132.1336 227.9998 14.24431724453763
ISS (ZARYA)             
1 25544U 98067A   26185.08885440  .00007564  00000+0  14587-3 0  9998
2 25544  51.6303 216.4301 0006763 253.0749 106.9498 15.48879284574378
PCSAT (NO-44)           
1 26931U 01043C   26184.78248597  .00000108  00000+0  71144-4 0  9999
2 26931  67.0488 201.3486 0006015 265.7602  94.2812 14.31961653292828
SAUDISAT 1C (SO-50)     
1 27607U 02058C   26184.81089851  .00001055  00000+0  14145-3 0  9996
2 27607  64.5520  77.5517 0074850 259.3699  99.8971 14.83081688266920
CUTE-1 (CO-55)          
1 27844U 03031E   26185.24788263  .00000339  00000+0  16569-3 0  9998
2 27844  98.6737 193.5921 0010495 131.0511 229.1577 14.24346436194103
CUBESAT XI-IV (CO-57)   
1 27848U 03031J   26184.96377740  .00000284  00000+0  14382-3 0  9994
2 27848  98.6769 193.0109 0010047 149.1392 211.0379 14.23629930193768
MOZHAETS 4 (RS22)       
1 27939U 03042A   26185.33611376  .00000542  00000+0  91759-4 0  9996
2 27939  98.3469  10.1792 0010409 208.9485 272.7335 14.73496985218074
CUBESAT XI-V            
1 28895U 05043F   26185.18512092  .00001743  00000+0  28127-3 0  9991
2 28895  98.3004 341.1656 0014785 147.6619 212.5497 14.72679968104254
CUTE-1.7+APD II (CO-65) 
1 32785U 08021C   26185.21831418  .00006983  00000+0  43805-3 0  9994
2 32785  97.8289 166.9933 0007959 343.0118  17.0843 15.09621805987764
SEEDS II (CO-66)        
1 32791U 08021J   26184.45375337  .00018577  00000+0  57884-3 0  9993
2 32791  97.7521 183.1342 0001590 184.9877 175.1349 15.33316385989785
YUBILEINY (RS30)        
1 32953U 08025A   26185.24028914  .00000031  00000+0  15242-3 0  9999
2 32953  82.5051 344.8301 0018501 274.5078  85.3888 12.43180309821817
KKS-1 (KISEKI)          
1 33499U 09002H   26185.25784995  .00001600  00000+0  20293-3 0  9995
2 33499  98.1181 107.9705 0006635 228.4343 131.6302 14.83168983938729
SWISSCUBE               
1 35932U 09051B   26185.20442597  .00001216  00000+0  24944-3 0  9997
2 35932  98.4022  93.3885 0007203 149.3309 210.8314 14.62515164891648
BEESAT-1                
1 35933U 09051C   26185.01738541  .00001005  00000+0  21142-3 0  9997
2 35933  98.3948  92.7981 0005397 160.6033 199.5374 14.61748287891649
ITUPSAT1                
1 35935U 09051E   26185.02302402  .00000919  00000+0  19967-3 0  9998
2 35935  98.4031  91.9778 0007274 176.2481 183.8774 14.60466234891194
XIWANG-1 (HOPE-1)       
1 36122U 09072B   26185.26768410 -.00000306  00000+0 -68428-3 0  9999
2 36122 100.4037 138.8279 0007234 190.0667 170.0302 13.16438855795259
O/OREOS (USA 219)       
1 37224U 10062C   26185.00515322  .00002697  00000+0  25947-3 0  9990
2 37224  71.9706  42.2417 0013293  27.4238 332.7631 14.93816217119158
JUGNU                   
1 37839U 11058B   26185.23893634  .00000406  00000+0  72426-4 0  9999
2 37839  19.9588 204.8324 0018330 264.7151 174.5113 14.13780966761445
SRMSAT                  
1 37841U 11058D   26185.06653709  .00000394  00000+0  70328-4 0  9995
2 37841  19.9730 317.3057 0011851  29.9608 142.1060 14.11579192760209
STRAND-1                
1 39090U 13009E   26185.25253710  .00000343  00000+0  12958-3 0  9998
2 39090  98.3929   5.0673 0008746 171.9744 188.1585 14.37173910699514
ZACUBE-1 (TSHEPISOSAT)  
1 39417U 13066B   26184.93739966  .00003964  00000+0  30713-3 0  9991
2 39417  97.8036 147.3589 0043122 191.4127 168.6124 15.01282961683249
GOMX-1                  
1 39430U 13066Q   26185.27696071  .00001654  00000+0  25290-3 0  9991
2 39430  97.6468  24.6603 0129239  23.2162 337.4811 14.69517039672427
